start=new Date('2022-09-07T00:00:00.000Z').valueOf();
sats=[{"ARG_OF_PERICENTER":"63.0754","REV_AT_EPOCH":"8475","PERIOD":"95.593","SITE":"AFETR","CENTER_NAME":"EARTH","MEAN_MOTION_DDOT":"0.0000000000000","RA_OF_ASC_NODE":"202.1392","APOAPSIS":"548.453","EPOCH":"2022-09-06T19:54:53.748000","LAUNCH_DATE":"2021-03-04","TLE_LINE2":"2 47730  53.0519 202.1392 0001716  63.0754 297.0410 15.06383197 84755","MEAN_ELEMENT_THEORY":"SGP4","NORAD_CAT_ID":"47730","INCLINATION":"53.0519","TIME_SYSTEM":"UTC","SEMIMAJOR_AXIS":"6925.400","ELEMENT_SET_NO":"999","MEAN_MOTION":"15.06383197","ECCENTRICITY":"0.00017160","OBJECT_NAME":"STARLINK-2140","MEAN_MOTION_DOT":"-0.00004045","OBJECT_ID":"2021-017J","DECAY_DATE":null,"REF_FRAME":"TEME","MEAN_ANOMALY":"297.0410","EPHEMERIS_TYPE":"0","GP_ID":"211919702","BSTAR":"-0.00025289000000","RCS_SIZE":"LARGE","FILE":"3561419","CLASSIFICATION_TYPE":"U","COUNTRY_CODE":"US","OBJECT_TYPE":"PAYLOAD","PERIAPSIS":"546.077","TLE_LINE1":"1 47730U 21017J   22249.82978875 -.00004045  00000-0 -25289-3 0  9999"},{"BSTAR":"-0.00000735530000","GP_ID":"211883632","EPHEMERIS_TYPE":"0","MEAN_ANOMALY":"291.8775","REF_FRAME":"TEME","DECAY_DATE":null,"OBJECT_ID":"2021-017K","MEAN_MOTION_DOT":"-0.00000391","TLE_LINE1":"1 47731U 21017K   22249.30500210 -.00000391  00000-0 -73553-5 0  9996","PERIAPSIS":"546.091","OBJECT_TYPE":"PAYLOAD","COUNTRY_CODE":"US","CLASSIFICATION_TYPE":"U","FILE":"3560801","RCS_SIZE":"LARGE","TLE_LINE2":"2 47731  53.0558 199.4971 0001656  68.2390 291.8775 15.06392106 84752","LAUNCH_DATE":"2021-03-04","EPOCH":"2022-09-06T07:19:12.181440","APOAPSIS":"548.385","RA_OF_ASC_NODE":"199.4971","MEAN_MOTION_DDOT":"0.0000000000000","SITE":"AFETR","PERIOD":"95.593","CENTER_NAME":"EARTH","REV_AT_EPOCH":"8475","ARG_OF_PERICENTER":"68.2390","OBJECT_NAME":"STARLINK-2141","ECCENTRICITY":"0.00016560","MEAN_MOTION":"15.06392106","ELEMENT_SET_NO":"999","SEMIMAJOR_AXIS":"6925.373","TIME_SYSTEM":"UTC","INCLINATION":"53.0558","NORAD_CAT_ID":"47731","MEAN_ELEMENT_THEORY":"SGP4"},{"RA_OF_ASC_NODE":"112.4788","REV_AT_EPOCH":"8601","ARG_OF_PERICENTER":"88.2761","SITE":"AFETR","PERIOD":"95.593","CENTER_NAME":"EARTH","MEAN_MOTION_DDOT":"0.0000000000000","EPOCH":"2022-09-06T19:24:25.973280","LAUNCH_DATE":"2021-03-04","TLE_LINE2":"2 47732  53.0552 112.4788 0001563  88.2761 271.8407 15.06387192 86019","APOAPSIS":"548.335","TIME_SYSTEM":"UTC","SEMIMAJOR_AXIS":"6925.388","ELEMENT_SET_NO":"999","MEAN_ELEMENT_THEORY":"SGP4","NORAD_CAT_ID":"47732","INCLINATION":"53.0552","OBJECT_NAME":"STARLINK-2142","MEAN_MOTION":"15.06387192","ECCENTRICITY":"0.00015630","REF_FRAME":"TEME","MEAN_MOTION_DOT":"-0.00002109","OBJECT_ID":"2021-017L","DECAY_DATE":null,"EPHEMERIS_TYPE":"0","GP_ID":"211920706","BSTAR":"-0.00012274000000","MEAN_ANOMALY":"271.8407","RCS_SIZE":"LARGE","FILE":"3561419","CLASSIFICATION_TYPE":"U","OBJECT_TYPE":"PAYLOAD","PERIAPSIS":"546.170","TLE_LINE1":"1 47732U 21017L   22249.80863395 -.00002109  00000-0 -12274-3 0  9998","COUNTRY_CODE":"US"},{"MEAN_MOTION_DDOT":"0.0000000000000","PERIOD":"95.593","SITE":"AFETR","CENTER_NAME":"EARTH","REV_AT_EPOCH":"8470","ARG_OF_PERICENTER":"68.0260","RA_OF_ASC_NODE":"208.0569","APOAPSIS":"548.300","TLE_LINE2":"2 47733  53.0537 208.0569 0001514  68.0260 292.0890 15.06387632 84702","LAUNCH_DATE":"2021-03-04","EPOCH":"2022-09-06T14:59:39.039360","INCLINATION":"53.0537","MEAN_ELEMENT_THEORY":"SGP4","NORAD_CAT_ID":"47733","ELEMENT_SET_NO":"999","SEMIMAJOR_AXIS":"6925.386","TIME_SYSTEM":"UTC","ECCENTRICITY":"0.00015140","MEAN_MOTION":"15.06387632","OBJECT_NAME":"STARLINK-2143","DECAY_DATE":null,"OBJECT_ID":"2021-017M","MEAN_MOTION_DOT":"-0.00003870","REF_FRAME":"TEME","MEAN_ANOMALY":"292.0890","BSTAR":"-0.00024111000000","GP_ID":"211919954","EPHEMERIS_TYPE":"0","CLASSIFICATION_TYPE":"U","FILE":"3561419","RCS_SIZE":"LARGE","COUNTRY_CODE":"US","TLE_LINE1":"1 47733U 21017M   22249.62475740 -.00003870  00000-0 -24111-3 0  9991","PERIAPSIS":"546.203","OBJECT_TYPE":"PAYLOAD"},{"COUNTRY_CODE":"US","PERIAPSIS":"546.372","TLE_LINE1":"1 47734U 21017N   22249.24602301 -.00001491  00000-0 -81209-4 0  9994","OBJECT_TYPE":"PAYLOAD","FILE":"3560801","CLASSIFICATION_TYPE":"U","RCS_SIZE":"LARGE","MEAN_ANOMALY":"285.9269","GP_ID":"211882881","BSTAR":"-0.00008120900000","EPHEMERIS_TYPE":"0","DECAY_DATE":null,"MEAN_MOTION_DOT":"-0.00001491","OBJECT_ID":"2021-017N","REF_FRAME":"TEME","MEAN_MOTION":"15.06396412","ECCENTRICITY":"0.00012310","OBJECT_NAME":"STARLINK-2144","NORAD_CAT_ID":"47734","MEAN_ELEMENT_THEORY":"SGP4","INCLINATION":"53.0535","ELEMENT_SET_NO":"999","SEMIMAJOR_AXIS":"6925.360","TIME_SYSTEM":"UTC","APOAPSIS":"548.077","TLE_LINE2":"2 47734  53.0535 199.7590 0001231  74.1856 285.9269 15.06396412 84758","LAUNCH_DATE":"2021-03-04","EPOCH":"2022-09-06T05:54:16.388064","MEAN_MOTION_DDOT":"0.0000000000000","ARG_OF_PERICENTER":"74.1856","REV_AT_EPOCH":"8475","PERIOD":"95.592","SITE":"AFETR","CENTER_NAME":"EARTH","RA_OF_ASC_NODE":"199.7590"},{"EPOCH":"2022-09-06T19:01:51.385440","LAUNCH_DATE":"2021-03-04","TLE_LINE2":"2 47735  53.0535 122.4734 0001566  69.9630 290.1528 15.06379728 85865","APOAPSIS":"548.360","RA_OF_ASC_NODE":"122.4734","ARG_OF_PERICENTER":"69.9630","REV_AT_EPOCH":"8586","PERIOD":"95.593","SITE":"AFETR","CENTER_NAME":"EARTH","MEAN_MOTION_DDOT":"0.0000000000000","OBJECT_NAME":"STARLINK-2146","MEAN_MOTION":"15.06379728","ECCENTRICITY":"0.00015660","TIME_SYSTEM":"UTC","SEMIMAJOR_AXIS":"6925.411","ELEMENT_SET_NO":"999","NORAD_CAT_ID":"47735","MEAN_ELEMENT_THEORY":"SGP4","INCLINATION":"53.0535","EPHEMERIS_TYPE":"0","GP_ID":"211920955","BSTAR":"-0.00028474000000","MEAN_ANOMALY":"290.1528","REF_FRAME":"TEME","MEAN_MOTION_DOT":"-0.00004518","OBJECT_ID":"2021-017P","DECAY_DATE":null,"OBJECT_TYPE":"PAYLOAD","PERIAPSIS":"546.191","TLE_LINE1":"1 47735U 21017P   22249.79295585 -.00004518  00000-0 -28474-3 0  9994","COUNTRY_CODE":"US","RCS_SIZE":"LARGE","FILE":"3561419","CLASSIFICATION_TYPE":"U"},{"OBJECT_NAME":"STARLINK-2147","MEAN_MOTION":"15.06387961","ECCENTRICITY":"0.00016480","TIME_SYSTEM":"UTC","ELEMENT_SET_NO":"999","SEMIMAJOR_AXIS":"6925.385","MEAN_ELEMENT_THEORY":"SGP4","NORAD_CAT_ID":"47736","INCLINATION":"53.0544","LAUNCH_DATE":"2021-03-04","EPOCH":"2022-09-06T06:43:22.983168","TLE_LINE2":"2 47736  53.0544 189.6078 0001648  59.6861 300.4291 15.06387961 84932","APOAPSIS":"548.392","RA_OF_ASC_NODE":"189.6078","REV_AT_EPOCH":"8493","ARG_OF_PERICENTER":"59.6861","SITE":"AFETR","CENTER_NAME":"EARTH","PERIOD":"95.593","MEAN_MOTION_DDOT":"0.0000000000000","OBJECT_TYPE":"PAYLOAD","PERIAPSIS":"546.109","TLE_LINE1":"1 47736U 21017Q   22249.28012712 -.00001851  00000-0 -10540-3 0  9990","COUNTRY_CODE":"US","RCS_SIZE":"LARGE","FILE":"3560801","CLASSIFICATION_TYPE":"U","EPHEMERIS_TYPE":"0","GP_ID":"211884370","BSTAR":"-0.00010540000000","MEAN_ANOMALY":"300.4291","REF_FRAME":"TEME","MEAN_MOTION_DOT":"-0.00001851","OBJECT_ID":"2021-017Q","DECAY_DATE":null},{"MEAN_MOTION":"15.30549708","ECCENTRICITY":"0.00016130","OBJECT_NAME":"STARLINK-2148","NORAD_CAT_ID":"47737","MEAN_ELEMENT_THEORY":"SGP4","INCLINATION":"53.0512","SEMIMAJOR_AXIS":"6852.308","ELEMENT_SET_NO":"999","TIME_SYSTEM":"UTC","APOAPSIS":"475.278","TLE_LINE2":"2 47737  53.0512  89.6368 0001613 101.6053 258.5128 15.30549708 86381","EPOCH":"2022-09-06T18:50:38.167008","LAUNCH_DATE":"2021-03-04","MEAN_MOTION_DDOT":"0.0000000000000","REV_AT_EPOCH":"8638","ARG_OF_PERICENTER":"101.6053","CENTER_NAME":"EARTH","SITE":"AFETR","PERIOD":"94.084","RA_OF_ASC_NODE":"89.6368","COUNTRY_CODE":"US","PERIAPSIS":"473.068","TLE_LINE1":"1 47737U 21017R   22249.78516397  .00084773  00000-0  28111-2 0  9998","OBJECT_TYPE":"PAYLOAD","FILE":"3561419","CLASSIFICATION_TYPE":"U","RCS_SIZE":"LARGE","MEAN_ANOMALY":"258.5128","GP_ID":"211919455","BSTAR":"0.00281110000000","EPHEMERIS_TYPE":"0","DECAY_DATE":null,"MEAN_MOTION_DOT":"0.00084773","OBJECT_ID":"2021-017R","REF_FRAME":"TEME"},{"TIME_SYSTEM":"UTC","SEMIMAJOR_AXIS":"6925.391","ELEMENT_SET_NO":"999","INCLINATION":"53.0544","MEAN_ELEMENT_THEORY":"SGP4","NORAD_CAT_ID":"47738","OBJECT_NAME":"STARLINK-2149","ECCENTRICITY":"0.00018080","MEAN_MOTION":"15.06386244","RA_OF_ASC_NODE":"189.6820","CENTER_NAME":"EARTH","SITE":"AFETR","PERIOD":"95.593","ARG_OF_PERICENTER":"66.6962","REV_AT_EPOCH":"8493","MEAN_MOTION_DDOT":"0.0000000000000","EPOCH":"2022-09-06T07:41:48.844608","LAUNCH_DATE":"2021-03-04","TLE_LINE2":"2 47738  53.0544 189.6820 0001808  66.6962 293.4217 15.06386244 84939","APOAPSIS":"548.508","RCS_SIZE":"LARGE","CLASSIFICATION_TYPE":"U","FILE":"3560801","OBJECT_TYPE":"PAYLOAD","TLE_LINE1":"1 47738U 21017S   22249.32070422 -.00002591  00000-0 -15516-3 0  9999","PERIAPSIS":"546.004","COUNTRY_CODE":"US","REF_FRAME":"TEME","OBJECT_ID":"2021-017S","MEAN_MOTION_DOT":"-0.00002591","DECAY_DATE":null,"EPHEMERIS_TYPE":"0","BSTAR":"-0.00015516000000","GP_ID":"211883381","MEAN_ANOMALY":"293.4217"},{"FILE":"3561419","CLASSIFICATION_TYPE":"U","RCS_SIZE":"LARGE","COUNTRY_CODE":"US","PERIAPSIS":"546.140","TLE_LINE1":"1 47739U 21017T   22249.87311211 -.00002057  00000-0 -11930-3 0  9997","OBJECT_TYPE":"PAYLOAD","DECAY_DATE":null,"MEAN_MOTION_DOT":"-0.00002057","OBJECT_ID":"2021-017T","REF_FRAME":"TEME","MEAN_ANOMALY":"292.8889","GP_ID":"211920456","BSTAR":"-0.00011930000000","EPHEMERIS_TYPE":"0","MEAN_ELEMENT_THEORY":"SGP4","NORAD_CAT_ID":"47739","INCLINATION":"53.0532","ELEMENT_SET_NO":"999","SEMIMAJOR_AXIS":"6925.403","TIME_SYSTEM":"UTC","MEAN_MOTION":"15.06382261","ECCENTRICITY":"0.00016280","OBJECT_NAME":"STARLINK-2150","MEAN_MOTION_DDOT":"0.0000000000000","REV_AT_EPOCH":"8467","ARG_OF_PERICENTER":"67.2272","SITE":"AFETR","PERIOD":"95.593","CENTER_NAME":"EARTH","RA_OF_ASC_NODE":"211.9511","APOAPSIS":"548.395","TLE_LINE2":"2 47739  53.0532 211.9511 0001628  67.2272 292.8889 15.06382261 84678","EPOCH":"2022-09-06T20:57:16.886304","LAUNCH_DATE":"2021-03-04"}];
